{"fetched_at":"2026-03-29T16:36:15Z","count":15609,"tles":[{"name":"STARLINK-32220","line1":"1 60370U 24138R   26087.74811625  .00000541  00000+0  30376-4 0  9993","line2":"2 60370  53.1609 221.2089 0000963  98.4983 261.6127 15.30193634 93546","category":"Starlink"}]}